0 SL-12 R/B(2)
1 27473U 02037D   18222.82977382 -.00000183 +00000-0 -10506-2 0  9994
2 27473 063.4373 160.7228 0492633 345.7740 028.6611 12.01394637704027
0 SL-12 DEB
1 27476U 02037G   18222.80731682 -.00000236 +00000-0 -14927-2 0  9996
2 27476 063.4353 152.8047 0493828 346.4967 027.6752 12.01936186704166
0 SL-12 DEB
1 27476U 02037G   18222.99824238 -.00000224  00000-0 -13900-2 0  9993
2 27476  63.4353 152.4263 0493827 346.4980 133.8030 12.01936220704243
0 SL-12 DEB
1 27476U 02037G   18223.25540919 -.00000216 +00000-0 -13223-2 0  9993
2 27476 063.4353 151.9168 0493829 346.4998 166.5533 12.01936172704216
0 TRANSIT 5B-1 DEB
1 27479U 63038P   18223.26284299 +.00004312 +00000-0 +21755-2 0  9999
2 27479 090.0961 331.4086 0045122 187.5491 172.5024 14.15640487823903
0 TRANSIT 5B-1 DEB
1 27479U 63038P   18222.76805066 +.00004290 +00000-0 +21646-2 0  9998
2 27479 090.0961 331.4033 0044956 188.8424 171.1977 14.15636133823836
0 DELTA 1 DEB
1 27481U 68055J   18222.92521467 +.00002246 +00000-0 +32276-2 0  9993
2 27481 120.7336 211.6748 1825255 163.8633 202.9218 10.85357777198690
0 DELTA 1 DEB
1 27481U 68055J   18222.92521467  .00002246  00000-0  32276-2 0  9993
2 27481 120.7336 211.6748 1825255 163.8633 202.9218 10.85357777656521
0 CZ-4 DEB
1 27482U 90081CU  18222.98503122  .00000159  00000-0  11507-3 0  9998
2 27482  98.7058 239.0039 0010697 140.0180 250.4342 14.09501675904310
0 CZ-4 DEB
1 27482U 90081CU  18222.51346368 +.00000150 +00000-0 +11020-3 0  9995
2 27482 098.7058 238.5478 0010667 141.1954 017.7615 14.09501549901010
0 M-5 DEB
1 27489U 97005G   18222.30455451 +.00002870 +00000-0 +21625-3 0  9999
2 27489 031.4824 326.6172 4911434 346.2893 012.8201 05.82809294336746
0 M-5 DEB
1 27489U 97005G   18223.33544642 +.00003377 +00000-0 +25085-3 0  9991
2 27489 031.4807 325.3689 4911381 348.2202 015.7541 05.82815881336808
0 SL-16 DEB
1 27491U 98043L   18222.94008352 -.00000002 +00000-0 +31827-4 0  9991
2 27491 098.9085 029.3106 0207085 025.8015 335.3295 13.79325693010838
0 SL-16 DEB
1 27491U 98043L   18222.94008352 -.00000002  00000-0  31827-4 0  9991
2 27491  98.9085  29.3106 0207085  25.8015 335.3295 13.79325693 10883
0 CZ-4 DEB
1 27492U 99057MM  18223.37608219 +.00000400 +00000-0 +10920-3 0  9995
2 27492 098.4560 201.7091 0090672 156.3869 204.1527 14.50325066907021
0 CZ-4 DEB
1 27492U 99057MM  18222.89314495 +.00000396 +00000-0 +10840-3 0  9996
2 27492 098.4559 201.2241 0090639 157.8528 202.6620 14.50324608906951
0 CZ-4 DEB
1 27493U 99057MN  18222.13433049 +.00000115 +00000-0 +45550-4 0  9997
2 27493 098.5539 186.1429 0080783 177.4417 244.1032 14.44121030936761
0 CZ-4 DEB
1 27493U 99057MN  18223.39913198 +.00000113 +00000-0 +45130-4 0  9996
2 27493 098.5541 187.4150 0080862 173.6395 339.5942 14.44121416936947
0 COSMOS 2392 DEB
1 27494U 02037H   18223.61393142 +.00000406 +00000-0 +37803-2 0  9996
2 27494 063.4595 334.6053 0441650 333.2609 110.7049 12.10548716706909
0 COSMOS 2392 DEB
1 27494U 02037H   18222.80586275 +.00000403 +00000-0 +37550-2 0  9993
2 27494 063.4595 336.2305 0441605 333.2612 189.1682 12.10547976706800
0 EUTE 8 WEST C (HB 6)
1 27499U 02038A   18222.09009518 -.00000112 +00000-0 +00000-0 0  9996
2 27499 001.6910 087.2850 0000826 224.4245 135.6095 00.99322174022458
0 EUTE 8 WEST C (HB 6)
1 27499U 02038A   18223.09709994 -.00000089 +00000-0 +00000-0 0  9995
2 27499 001.6933 087.2796 0000816 225.2400 134.8698 00.99321839022461
0 ATLAS 5 CENTAUR R/B
1 27500U 02038B   18223.41169170 +.00001799 +00000-0 +37648-3 0  9999
2 27500 017.8902 185.0611 6716990 025.9714 355.9988 03.02337573138564
0 ATLAS 5 CENTAUR R/B
1 27500U 02038B   18223.08098666  .00001722  00000-0  35812-3 0  9990
2 27500  17.8910 185.2469 6716887  25.6289 356.0556  3.02336217138539
0 ATLAS 5 CENTAUR R/B
1 27500U 02038B   18222.75028021 +.00001685 +00000-0 +34647-3 0  9994
2 27500 017.8915 185.4326 6716827 025.2857 356.1132 03.02334937138548
0 ECHOSTAR 8
1 27501U 02039A   18223.52228910 -.00000138 +00000-0 +00000-0 0  9997
2 27501 001.9366 084.8704 0008172 347.6014 271.3713 00.98509674023812
0 SL-12 R/B(2)
1 27504U 02039B   18223.05997919 -.00000171 +00000-0 +00000-0 0  9997
2 27504 022.3765 230.3905 5915278 154.0525 254.5030 02.01841376117758
0 SL-12 R/B(2)
1 27504U 02039B   18223.05997912 -.00000171  00000-0  00000+0 0  9999
2 27504  22.3765 230.3902 5915279 154.0529 254.5027  2.01841372117763
0 EUTE 12 WEST A (AB 1)
1 27508U 02040A   18221.95078570 +.00000035 +00000-0 +00000-0 0  9991
2 27508 000.1669 076.4798 0002559 089.8499 193.6669 01.00268542058444
0 EUTE 12 WEST A (AB 1)
1 27508U 02040A   18222.94807803 +.00000032 +00000-0 +00000-0 0  9997
2 27508 000.1689 076.6432 0002569 090.8609 192.4893 01.00268818058452
0 METEOSAT 8 (MSG 1)
1 27509U 02040B   18222.15788437 +.00000119 +00000-0 +00000-0 0  9998
2 27509 005.5552 056.7722 0000791 212.0041 148.1472 01.00278935058503
0 METEOSAT 8 (MSG 1)
1 27509U 02040B   18222.15788339 +.00000119 +00000-0 +00000-0 0  9999
2 27509 005.5551 056.7719 0000803 210.8204 149.3309 01.00278938058504
0 ARIANE 5 R/B
1 27510U 02040C   18223.54752133 -.00000228 +00000-0 -22648-3 0  9996
2 27510 005.4157 046.8378 7162252 295.8758 296.6219 02.27199436132446
0 INTELSAT 906
1 27513U 02041A   18223.59907045 -.00000010 +00000-0 +00000-0 0  9992
2 27513 000.0189 182.3763 0002549 337.1731 080.2666 01.00273276058293
0 INTELSAT 906
1 27513U 02041A   18223.12041475 -.00000009  00000-0  00000+0 0  9994
2 27513   0.0191 182.1895 0002556 336.3647 268.4721  1.00273221 58220
0 INTELSAT 906
1 27513U 02041A   18222.83326721 -.00000008 +00000-0 +00000-0 0  9991
2 27513 000.0297 216.1039 0002525 300.0500 167.2145 01.00273205058281
0 DRTS
1 27516U 02042B   18222.85760602 -.00000112 +00000-0 +00000-0 0  9993
2 27516 005.7911 059.9254 0018666 166.7147 227.8505 00.99277640017123
0 DRTS
1 27516U 02042B   18223.47896906 -.00000130 +00000-0 +00000-0 0  9999
2 27516 005.7921 059.9217 0018702 166.7269 089.9199 00.99277819017123
0 H-2A R/B(2)
1 27518U 02042D   18223.04963511 -.00000064 +00000-0 +18717-3 0  9994
2 27518 028.3585 183.4357 7121126 022.6466 357.0945 02.36395824137425
0 H-2A R/B(2)
1 27518U 02042D   18222.20367862 -.00000064 +00000-0 +11258-3 0  9991
2 27518 028.3603 183.7421 7120899 022.1469 357.1688 02.36395733137407
0 H-2A R/B(2)
1 27518U 02042D   18223.04963510 -.00000064  00000-0  18649-3 0  9997
2 27518  28.3586 183.4356 7121123  22.6468 357.0944  2.36395826137481
0 HISPASAT 1D
1 27528U 02044A   18223.31704431 -.00000240 +00000-0 +00000-0 0  9990
2 27528 000.0573 292.0567 0002070 206.9846 264.7968 01.00272625058208
0 HISPASAT 1D
1 27528U 02044A   18222.31195969 -.00000237 +00000-0 +00000-0 0  9995
2 27528 000.0593 291.1886 0001949 210.8049 259.0165 01.00269706014043
0 PSLV DEB
1 27530U 01049MV  18222.82233861 +.00002392 +00000-0 +68761-4 0  9997
2 27530 097.6165 356.5273 0027691 210.9471 149.0142 15.36536075897661
0 PSLV DEB
1 27530U 01049MV  18223.14795680  .00002401  00000-0  68995-4 0  9995
2 27530  97.6165 356.8643 0027717 209.7557 150.2112 15.36537509897849
0 PSLV DEB
1 27530U 01049MV  18223.60382140 +.00002566 +00000-0 +73557-4 0  9991
2 27530 097.6166 357.3362 0027760 208.0902 151.8845 15.36540351897780
0 NADEZHDA 7
1 27534U 02046A   18223.63184685 +.00000040 +00000-0 +26775-4 0  9995
2 27534 082.9352 288.5236 0036620 020.2443 087.6994 13.72701355795275
0 NADEZHDA 7
1 27534U 02046A   18222.76352050 +.00000035 +00000-0 +21183-4 0  9993
2 27534 082.9353 289.1650 0036683 022.6281 116.6986 13.72701333795155
0 NADEZHDA 7
1 27534U 02046A   18223.17849659  .00000038  00000-0  24490-4 0  9992
2 27534  82.9353 288.8585 0036657  21.4961   7.3750 13.72701346795307
0 SL-8 R/B
1 27535U 02046B   18223.61972194 +.00000009 +00000-0 -64871-5 0  9990
2 27535 082.9312 274.9610 0035973 333.5493 139.5541 13.74360310796317
0 CZ-4 DEB
1 27536U 99057MP  18223.48877559 +.00000276 +00000-0 +82457-4 0  9997
2 27536 098.3025 190.2812 0033885 258.6097 218.2354 14.50023095867802
0 PSLV DEB
1 27538U 01049MW  18223.59237878 +.00000285 +00000-0 +21168-4 0  9991
2 27538 097.6692 199.1845 0044391 123.1569 237.3931 15.10135111896719
0 PSLV DEB
1 27538U 01049MW  18222.86350646 +.00000354 +00000-0 +25345-4 0  9997
2 27538 097.6691 198.4547 0044350 125.5814 234.9561 15.10134473896603
0 OPS 4682 DEB
1 27545U 65027BH  18222.20614545 +.00000175 +00000-0 +61675-3 0  9996
2 27545 090.3064 296.7527 0024444 183.1510 208.4758 12.93009780784486
0 EUTE 25C (EUTE W5)
1 27554U 02051A   18222.25389988 +.00000133 +00000-0 +00000-0 0  9995
2 27554 002.2753 084.7671 0011644 242.7842 117.1785 01.00338041020048
0 EUTE 25C (EUTE W5)
1 27554U 02051A   18223.25063876 +.00000130 +00000-0 +00000-0 0  9998
2 27554 002.2776 084.7579 0011650 242.8945 117.1242 01.00338546020051
0 ALSAT 1
1 27559U 02054A   18223.50825601 +.00000025 +00000-0 +11706-4 0  9998
2 27559 097.8994 010.7148 0023622 086.6168 273.7741 14.72256872840970
0 ALSAT 1
1 27559U 02054A   18222.82861575 +.00000024 +00000-0 +11532-4 0  9998
2 27559 097.8993 010.0545 0023624 088.6650 271.7264 14.72256788840876
0 MOZHAYETS
1 27560U 02054B   18223.62407407 +.00000046 +00000-0 +20475-4 0  9999
2 27560 098.2654 358.7336 0039810 246.1053 312.2066 14.57721155834297
0 RUBIN 3/SL-8
1 27561U 02054C   18223.31966739 +.00000051 +00000-0 +22383-4 0  9990
2 27561 098.3160 358.9450 0045254 318.4050 041.3707 14.55683842833322
0 RUBIN 3/SL-8
1 27561U 02054C   18222.83851216 +.00000051 +00000-0 +22403-4 0  9992
2 27561 098.3159 358.4658 0045259 319.9137 039.8724 14.55683791833258
0 TDRS 10
1 27566U 02055A   18221.75776656 +.00000060 +00000-0 +00000-0 0  9997
2 27566 005.7452 056.5949 0005606 249.4546 110.6311 01.00277486057471
